[{"OBJECT_NAME":"STARLINK-33989","OBJECT_ID":"2025-098D","EPOCH":"2026-02-03T06:10:39.957024","MEAN_MOTION":14.9833455,"ECCENTRICITY":0.00026603,"INCLINATION":70.0041,"RA_OF_ASC_NODE":1.3227,"ARG_OF_PERICENTER":268.327,"MEAN_ANOMALY":91.7584,"EPHEMERIS_TYPE":0,"CLASSIFICATION_TYPE":"U","NORAD_CAT_ID":63929,"ELEMENT_SET_NO":999,"REV_AT_EPOCH":4141,"BSTAR":0.00037236022,"MEAN_MOTION_DOT":4.353e-5,"MEAN_MOTION_DDOT":0},{"OBJECT_NAME":"STARLINK-33980","OBJECT_ID":"2025-098E","EPOCH":"2026-02-03T05:04:20.321184","MEAN_MOTION":14.98332052,"ECCENTRICITY":0.00027257,"INCLINATION":70.0029,"RA_OF_ASC_NODE":1.5623,"ARG_OF_PERICENTER":262.0912,"MEAN_ANOMALY":97.9938,"EPHEMERIS_TYPE":0,"CLASSIFICATION_TYPE":"U","NORAD_CAT_ID":63930,"ELEMENT_SET_NO":999,"REV_AT_EPOCH":4140,"BSTAR":-2.0796685e-5,"MEAN_MOTION_DOT":-3.41e-6,"MEAN_MOTION_DDOT":0},{"OBJECT_NAME":"STARLINK-33994","OBJECT_ID":"2025-098F","EPOCH":"2026-02-03T07:40:11.251488","MEAN_MOTION":14.99959876,"ECCENTRICITY":0.00097805,"INCLINATION":70.0039,"RA_OF_ASC_NODE":1.1367,"ARG_OF_PERICENTER":277.8175,"MEAN_ANOMALY":82.1875,"EPHEMERIS_TYPE":0,"CLASSIFICATION_TYPE":"U","NORAD_CAT_ID":63931,"ELEMENT_SET_NO":999,"REV_AT_EPOCH":4142,"BSTAR":0.077231023,"MEAN_MOTION_DOT":0.01039331,"MEAN_MOTION_DDOT":0},{"OBJECT_NAME":"STARLINK-33971","OBJECT_ID":"2025-098G","EPOCH":"2026-02-03T04:58:34.282272","MEAN_MOTION":14.9834061,"ECCENTRICITY":0.00023701,"INCLINATION":70.0044,"RA_OF_ASC_NODE":1.5472,"ARG_OF_PERICENTER":265.8039,"MEAN_ANOMALY":94.285,"EPHEMERIS_TYPE":0,"CLASSIFICATION_TYPE":"U","NORAD_CAT_ID":63932,"ELEMENT_SET_NO":999,"REV_AT_EPOCH":4140,"BSTAR":0.00046889082,"MEAN_MOTION_DOT":5.508e-5,"MEAN_MOTION_DDOT":0},{"OBJECT_NAME":"STARLINK-33877","OBJECT_ID":"2025-098H","EPOCH":"2026-02-03T05:28:37.011360","MEAN_MOTION":14.98339043,"ECCENTRICITY":0.00030374,"INCLINATION":70.003,"RA_OF_ASC_NODE":1.205,"ARG_OF_PERICENTER":275.2962,"MEAN_ANOMALY":84.785,"EPHEMERIS_TYPE":0,"CLASSIFICATION_TYPE":"U","NORAD_CAT_ID":63933,"ELEMENT_SET_NO":999,"REV_AT_EPOCH":4141,"BSTAR":0.00088100261,"MEAN_MOTION_DOT":0.00010437,"MEAN_MOTION_DDOT":0},{"OBJECT_NAME":"STARLINK-33895","OBJECT_ID":"2025-098J","EPOCH":"2026-02-03T02:28:22.383840","MEAN_MOTION":14.98270265,"ECCENTRICITY":0.00030417,"INCLINATION":70.0063,"RA_OF_ASC_NODE":1.5838,"ARG_OF_PERICENTER":320.5307,"MEAN_ANOMALY":39.563,"EPHEMERIS_TYPE":0,"CLASSIFICATION_TYPE":"U","NORAD_CAT_ID":63934,"ELEMENT_SET_NO":999,"REV_AT_EPOCH":4139,"BSTAR":0.0074704646,"MEAN_MOTION_DOT":0.00090059,"MEAN_MOTION_DDOT":0},{"OBJECT_NAME":"STARLINK-34005","OBJECT_ID":"2025-098K","EPOCH":"2026-02-03T06:00:02.000160","MEAN_MOTION":14.98298203,"ECCENTRICITY":0.00030572,"INCLINATION":70.0028,"RA_OF_ASC_NODE":1.4551,"ARG_OF_PERICENTER":273.6688,"MEAN_ANOMALY":294.0996,"EPHEMERIS_TYPE":0,"CLASSIFICATION_TYPE":"U","NORAD_CAT_ID":63935,"ELEMENT_SET_NO":999,"REV_AT_EPOCH":581,"BSTAR":0.0030939416,"MEAN_MOTION_DOT":0.00036988,"MEAN_MOTION_DDOT":0},{"OBJECT_NAME":"STARLINK-34027","OBJECT_ID":"2025-098L","EPOCH":"2026-02-03T05:16:34.004928","MEAN_MOTION":14.98337941,"ECCENTRICITY":0.00023029,"INCLINATION":70.0039,"RA_OF_ASC_NODE":1.1816,"ARG_OF_PERICENTER":271.1442,"MEAN_ANOMALY":88.9453,"EPHEMERIS_TYPE":0,"CLASSIFICATION_TYPE":"U","NORAD_CAT_ID":63936,"ELEMENT_SET_NO":999,"REV_AT_EPOCH":4139,"BSTAR":0.0003276764,"MEAN_MOTION_DOT":3.82e-5,"MEAN_MOTION_DDOT":0},{"OBJECT_NAME":"STARLINK-34035","OBJECT_ID":"2025-098M","EPOCH":"2026-02-03T05:58:38.619840","MEAN_MOTION":14.98340378,"ECCENTRICITY":0.00025226,"INCLINATION":70.004,"RA_OF_ASC_NODE":1.2922,"ARG_OF_PERICENTER":266.5984,"MEAN_ANOMALY":93.4886,"EPHEMERIS_TYPE":0,"CLASSIFICATION_TYPE":"U","NORAD_CAT_ID":63937,"ELEMENT_SET_NO":999,"REV_AT_EPOCH":4139,"BSTAR":0.0005672464,"MEAN_MOTION_DOT":6.683e-5,"MEAN_MOTION_DDOT":0},{"OBJECT_NAME":"STARLINK-33988","OBJECT_ID":"2025-098N","EPOCH":"2026-02-03T06:16:27.918336","MEAN_MOTION":14.98314076,"ECCENTRICITY":0.0002693,"INCLINATION":70.0038,"RA_OF_ASC_NODE":1.3356,"ARG_OF_PERICENTER":269.9325,"MEAN_ANOMALY":90.1525,"EPHEMERIS_TYPE":0,"CLASSIFICATION_TYPE":"U","NORAD_CAT_ID":63938,"ELEMENT_SET_NO":999,"REV_AT_EPOCH":4139,"BSTAR":0.00065517433,"MEAN_MOTION_DOT":7.73e-5,"MEAN_MOTION_DDOT":0},{"OBJECT_NAME":"STARLINK-34020","OBJECT_ID":"2025-098P","EPOCH":"2026-02-03T05:34:34.555296","MEAN_MOTION":14.98332612,"ECCENTRICITY":0.00026984,"INCLINATION":70.0043,"RA_OF_ASC_NODE":1.2295,"ARG_OF_PERICENTER":301.1794,"MEAN_ANOMALY":58.9101,"EPHEMERIS_TYPE":0,"CLASSIFICATION_TYPE":"U","NORAD_CAT_ID":63939,"ELEMENT_SET_NO":999,"REV_AT_EPOCH":4139,"BSTAR":-0.00086183935,"MEAN_MOTION_DOT":-0.00010362,"MEAN_MOTION_DDOT":0},{"OBJECT_NAME":"STARLINK-34021","OBJECT_ID":"2025-098Q","EPOCH":"2026-02-03T06:00:02.000160","MEAN_MOTION":14.98318052,"ECCENTRICITY":0.00029449,"INCLINATION":70.0028,"RA_OF_ASC_NODE":1.48,"ARG_OF_PERICENTER":273.7558,"MEAN_ANOMALY":271.465,"EPHEMERIS_TYPE":0,"CLASSIFICATION_TYPE":"U","NORAD_CAT_ID":63940,"ELEMENT_SET_NO":999,"REV_AT_EPOCH":581,"BSTAR":0.0025291248,"MEAN_MOTION_DOT":0.00030205,"MEAN_MOTION_DDOT":0},{"OBJECT_NAME":"STARLINK-34004","OBJECT_ID":"2025-098R","EPOCH":"2026-02-03T05:46:37.728480","MEAN_MOTION":14.98335199,"ECCENTRICITY":0.00016178,"INCLINATION":70.0063,"RA_OF_ASC_NODE":1.2566,"ARG_OF_PERICENTER":257.3018,"MEAN_ANOMALY":102.7961,"EPHEMERIS_TYPE":0,"CLASSIFICATION_TYPE":"U","NORAD_CAT_ID":63941,"ELEMENT_SET_NO":999,"REV_AT_EPOCH":4139,"BSTAR":0.00063696913,"MEAN_MOTION_DOT":7.516e-5,"MEAN_MOTION_DDOT":0},{"OBJECT_NAME":"STARLINK-34014","OBJECT_ID":"2025-098S","EPOCH":"2026-02-03T02:39:33.721344","MEAN_MOTION":15.00130539,"ECCENTRICITY":0.00121802,"INCLINATION":70.005,"RA_OF_ASC_NODE":1.6119,"ARG_OF_PERICENTER":240.5409,"MEAN_ANOMALY":119.4536,"EPHEMERIS_TYPE":0,"CLASSIFICATION_TYPE":"U","NORAD_CAT_ID":63942,"ELEMENT_SET_NO":999,"REV_AT_EPOCH":4136,"BSTAR":0.073205677,"MEAN_MOTION_DOT":0.00985856,"MEAN_MOTION_DDOT":0},{"OBJECT_NAME":"STARLINK-33985","OBJECT_ID":"2025-098T","EPOCH":"2026-02-03T05:28:20.915040","MEAN_MOTION":14.98335284,"ECCENTRICITY":0.0002311,"INCLINATION":70.0036,"RA_OF_ASC_NODE":1.2026,"ARG_OF_PERICENTER":266.6975,"MEAN_ANOMALY":93.392,"EPHEMERIS_TYPE":0,"CLASSIFICATION_TYPE":"U","NORAD_CAT_ID":63943,"ELEMENT_SET_NO":999,"REV_AT_EPOCH":4139,"BSTAR":0.00043553207,"MEAN_MOTION_DOT":5.108e-5,"MEAN_MOTION_DDOT":0},{"OBJECT_NAME":"STARLINK-33996","OBJECT_ID":"2025-098U","EPOCH":"2026-02-03T06:16:40.333152","MEAN_MOTION":14.98337845,"ECCENTRICITY":0.00029399,"INCLINATION":70.0036,"RA_OF_ASC_NODE":1.3341,"ARG_OF_PERICENTER":272.3056,"MEAN_ANOMALY":87.7767,"EPHEMERIS_TYPE":0,"CLASSIFICATION_TYPE":"U","NORAD_CAT_ID":63944,"ELEMENT_SET_NO":999,"REV_AT_EPOCH":4139,"BSTAR":0.00026984243,"MEAN_MOTION_DOT":3.129e-5,"MEAN_MOTION_DDOT":0}]
