STARLINK-33989          
1 63929U 25098D   26034.25740691  .00004353  00000+0  37236-3 0  9990
2 63929  70.0041   1.3227 0002660 268.3270  91.7584 14.98334550 41416
STARLINK-33980          
1 63930U 25098E   26034.21134631 -.00000341  00000+0 -20797-4 0  9999
2 63930  70.0029   1.5623 0002725 262.0912  97.9938 14.98332052 41407
STARLINK-33994          
1 63931U 25098F   26034.31957467  .01039331  00000+0  77231-1 0  9993
2 63931  70.0039   1.1367 0009780 277.8175  82.1875 14.99959876 41421
STARLINK-33971          
1 63932U 25098G   26034.20734123  .00005508  00000+0  46889-3 0  9999
2 63932  70.0044   1.5472 0002370 265.8039  94.2850 14.98340610 41407
STARLINK-33877          
1 63933U 25098H   26034.22820615  .00010437  00000+0  88100-3 0  9993
2 63933  70.0030   1.2050 0003037 275.2962  84.7850 14.98339043 41416
STARLINK-33895          
1 63934U 25098J   26034.10303685  .00090059  00000+0  74705-2 0  9997
2 63934  70.0063   1.5838 0003041 320.5307  39.5630 14.98270265 41393
STARLINK-34005          
1 63935U 25098K   26034.25002315  .00036988  00000+0  30939-2 0  9992
2 63935  70.0028   1.4551 0003057 273.6688 294.0996 14.98298203  5815
STARLINK-34027          
1 63936U 25098L   26034.21983802  .00003820  00000+0  32768-3 0  9990
2 63936  70.0039   1.1816 0002302 271.1442  88.9453 14.98337941 41396
STARLINK-34035          
1 63937U 25098M   26034.24905810  .00006683  00000+0  56725-3 0  9996
2 63937  70.0040   1.2922 0002522 266.5984  93.4886 14.98340378 41390
STARLINK-33988          
1 63938U 25098N   26034.26143424  .00007730  00000+0  65517-3 0  9997
2 63938  70.0038   1.3356 0002693 269.9325  90.1525 14.98314076 41395
STARLINK-34020          
1 63939U 25098P   26034.23234439 -.00010362  00000+0 -86184-3 0  9992
2 63939  70.0043   1.2295 0002698 301.1794  58.9101 14.98332612 41395
STARLINK-34021          
1 63940U 25098Q   26034.25002315  .00030205  00000+0  25291-2 0  9999
2 63940  70.0028   1.4800 0002944 273.7558 271.4650 14.98318052  5810
STARLINK-34004          
1 63941U 25098R   26034.24071445  .00007516  00000+0  63697-3 0  9991
2 63941  70.0063   1.2566 0001617 257.3018 102.7961 14.98335199 41397
STARLINK-34014          
1 63942U 25098S   26034.11080696  .00985856  00000+0  73206-1 0  9993
2 63942  70.0050   1.6119 0012180 240.5409 119.4536 15.00130539 41362
STARLINK-33985          
1 63943U 25098T   26034.22801985  .00005108  00000+0  43553-3 0  9995
2 63943  70.0036   1.2026 0002311 266.6975  93.3920 14.98335284 41392
STARLINK-33996          
1 63944U 25098U   26034.26157793  .00003129  00000+0  26984-3 0  9991
2 63944  70.0036   1.3341 0002939 272.3056  87.7767 14.98337845 41395
